NORAD_CAT_ID,OBJECT_NAME,OBJECT_TYPE,EPOCH,MEAN_MOTION,ECCENTRICITY,INCLINATION,RA_OF_ASC_NODE,ARG_OF_PERICENTER,MEAN_ANOMALY,BSTAR,MEAN_MOTION_DOT,MEAN_MOTION_DDOT,TLE_LINE0,TLE_LINE1,TLE_LINE2,SEMIMAJOR_AXIS,PERIOD,APOGEE,PERIGEE,DECAYED
55915.0,STARLINK-5859,PAYLOAD,2023-07-13 12:26:42,14.98331252,0.0003734,69.9989,230.6507,268.9077,91.1655,-1.7916e-05,-3.07e-06,0.0,0 STARLINK-5859,1 55915U 23037B   23194.51855212 -.00000307  00000-0 -17916-4 0  9998,2 55915  69.9989 230.6507 0003734 268.9077  91.1655 14.98331252 18505,6950.189,96.107,574.649,569.459,0.0
55915.0,STARLINK-5859,PAYLOAD,2023-07-14 12:28:43,14.98331957,0.0003747,69.9989,228.1259,268.8156,91.2574,6.2255e-06,-1.9e-07,0.0,0 STARLINK-5859,1 55915U 23037B   23195.51995006 -.00000019  00000-0  62255-5 0  9991,2 55915  69.9989 228.1259 0003747 268.8156  91.2574 14.98331957 18651,6950.187,96.107,574.656,569.448,0.0
55915.0,STARLINK-5859,PAYLOAD,2023-07-15 12:30:44,14.9833247,0.0003731,69.9988,225.6013,268.8565,91.2167,3.5038e-05,3.25e-06,0.0,0 STARLINK-5859,1 55915U 23037B   23196.52134737  .00000325  00000-0  35038-4 0  9996,2 55915  69.9988 225.6013 0003731 268.8565  91.2167 14.98332470 18803,6950.185,96.107,574.643,569.457,0.0
55915.0,STARLINK-5859,PAYLOAD,2023-07-16 07:44:21,14.98327518,0.0003691,69.9989,223.5814,268.9306,91.143,-3.3398e-05,-4.92e-06,0.0,0 STARLINK-5859,1 55915U 23037B   23197.32247220 -.00000492  00000-0 -33398-4 0  9991,2 55915  69.9989 223.5814 0003691 268.9306  91.1430 14.98327518 18921,6950.201,96.107,574.631,569.5,0.0
55915.0,STARLINK-5859,PAYLOAD,2023-07-17 10:58:38,14.98330837,0.0003767,69.9988,220.7201,268.6025,91.4702,-1.6509e-05,-2.9e-06,0.0,0 STARLINK-5859,1 55915U 23037B   23198.45738957 -.00000290  00000-0 -16509-4 0  9999,2 55915  69.9988 220.7201 0003767 268.6025  91.4702 14.98330837 19090,6950.19,96.107,574.673,569.437,0.0
55915.0,STARLINK-5859,PAYLOAD,2023-07-18 11:00:39,14.98329677,0.0003814,69.9987,218.195,268.3697,91.7026,4.6286e-05,4.59e-06,0.0,0 STARLINK-5859,1 55915U 23037B   23199.45878819  .00000459  00000-0  46286-4 0  9992,2 55915  69.9987 218.1950 0003814 268.3697  91.7026 14.98329677 19245,6950.194,96.107,574.71,569.408,0.0
55915.0,STARLINK-5859,PAYLOAD,2023-07-19 11:02:40,14.98329509,0.0003797,69.9991,215.6705,268.0618,92.0106,-7.2342e-06,-1.79e-06,0.0,0 STARLINK-5859,1 55915U 23037B   23200.46018945 -.00000179  00000-0 -72342-5 0  9996,2 55915  69.9991 215.6705 0003797 268.0618  92.0106 14.98329509 19393,6950.194,96.107,574.698,569.42,0.0
55915.0,STARLINK-5859,PAYLOAD,2023-07-20 11:04:41,14.9833091,0.0003819,69.9993,213.1458,268.4271,91.6451,-1.0213e-05,-2.15e-06,0.0,0 STARLINK-5859,1 55915U 23037B   23201.46158797 -.00000215  00000-0 -10213-4 0  9996,2 55915  69.9993 213.1458 0003819 268.4271  91.6451 14.98330910 19540,6950.19,96.107,574.709,569.401,0.0
55915.0,STARLINK-5859,PAYLOAD,2023-07-21 11:06:41,14.98331326,0.000383,69.9994,210.6208,269.2691,90.8029,2.6708e-05,2.26e-06,0.0,0 STARLINK-5859,1 55915U 23037B   23202.46298578  .00000226  00000-0  26708-4 0  9995,2 55915  69.9994 210.6208 0003830 269.2691  90.8029 14.98331326 19694,6950.189,96.107,574.716,569.392,0.0
55915.0,STARLINK-5859,PAYLOAD,2023-07-24 11:12:44,14.98329719,0.00038,69.9993,203.0463,268.3267,91.7457,7.2794e-06,-6e-08,0.0,0 STARLINK-5859,1 55915U 23037B   23205.46718621 -.00000006  00000-0  72794-5 0  9998,2 55915  69.9993 203.0463 0003800 268.3267  91.7457 14.98329719 20496,6950.194,96.107,574.7,569.418,0.0
55915.0,STARLINK-5859,PAYLOAD,2023-07-25 11:14:45,14.98328977,0.0003777,69.9996,200.5219,267.5912,92.4814,7.3388e-06,-6e-08,0.0,0 STARLINK-5859,1 55915U 23037B   23206.46858692 -.00000006  00000-0  73388-5 0  9992,2 55915  69.9996 200.5219 0003777 267.5912  92.4814 14.98328977 20648,6950.196,96.107,574.686,569.436,0.0
55915.0,STARLINK-5859,PAYLOAD,2023-07-26 09:40:38,14.98331526,0.0003778,69.9998,198.1641,268.4216,91.651,1.7677e-05,1.18e-06,0.0,0 STARLINK-5859,1 55915U 23037B   23207.40322470  .00000118  00000-0  17677-4 0  9998,2 55915  69.9998 198.1641 0003778 268.4216  91.6510 14.98331526 20782,6950.188,96.107,574.679,569.427,0.0
55915.0,STARLINK-5859,PAYLOAD,2023-07-26 22:29:42,14.98332609,0.0003781,69.9994,196.819,267.9502,92.1224,3.8464e-05,3.66e-06,0.0,0 STARLINK-5859,1 55915U 23037B   23207.93730256  .00000366  00000-0  38464-4 0  9993,2 55915  69.9994 196.8190 0003781 267.9502  92.1224 14.98332609 20868,6950.185,96.107,574.678,569.422,0.0
55915.0,STARLINK-5859,PAYLOAD,2023-07-27 16:07:11,14.98333343,0.0003761,69.9996,194.9677,268.1716,91.9012,3.0406e-05,2.7e-06,0.0,0 STARLINK-5859,1 55915U 23037B   23208.67166069  .00000270  00000-0  30406-4 0  9992,2 55915  69.9996 194.9677 0003761 268.1716  91.9012 14.98333343 20629,6950.183,96.107,574.662,569.434,0.0
55915.0,STARLINK-5859,PAYLOAD,2023-07-28 00:07:52,14.98327213,0.0003567,70.0001,194.1274,264.6872,95.388,-4.6324e-05,-6.46e-06,0.0,0 STARLINK-5859,1 55915U 23037B   23209.00546677 -.00000646  00000-0 -46324-4 0  9992,2 55915  70.0001 194.1274 0003567 264.6872  95.3880 14.98327213 20677,6950.202,96.107,574.546,569.587,0.0
55915.0,STARLINK-5859,PAYLOAD,2023-07-28 08:08:32,14.98325794,0.0003593,70.0001,193.2847,268.2746,91.8001,-5.403e-05,-7.38e-06,0.0,0 STARLINK-5859,1 55915U 23037B   23209.33926859 -.00000738  00000-0 -54030-4 0  9997,2 55915  70.0001 193.2847 0003593 268.2746  91.8001 14.98325794 21075,6950.206,96.107,574.568,569.574,0.0
55915.0,STARLINK-5859,PAYLOAD,2023-07-29 01:46:01,14.9833245,0.0003644,70.0,191.4332,268.2439,91.8303,-3.4728e-05,-5.07e-06,0.0,0 STARLINK-5859,1 55915U 23037B   23210.07362396 -.00000507  00000-0 -34728-4 0  9996,2 55915  70.0000 191.4332 0003644 268.2439  91.8303 14.98332450 20834,6950.185,96.107,574.583,569.518,0.0
55915.0,STARLINK-5859,PAYLOAD,2023-07-30 01:48:02,14.98327419,0.0003712,69.9999,188.9082,268.5716,91.5017,6.2969e-05,6.58e-06,0.0,0 STARLINK-5859,1 55915U 23037B   23211.07502366  .00000658  00000-0  62969-4 0  9993,2 55915  69.9999 188.9082 0003712 268.5716  91.5017 14.98327419 20982,6950.201,96.107,574.646,569.486,0.0
55915.0,STARLINK-5859,PAYLOAD,2023-07-31 01:50:03,14.98330139,0.0003645,70.0,186.384,268.3378,91.7364,-8.6889e-06,-1.97e-06,0.0,0 STARLINK-5859,1 55915U 23037B   23212.07642389 -.00000197  00000-0 -86889-5 0  9992,2 55915  70.0000 186.3840 0003645 268.3378  91.7364 14.98330139 21137,6950.192,96.107,574.591,569.524,0.0
55915.0,STARLINK-5859,PAYLOAD,2023-08-01 01:52:04,14.9832941,0.0003485,70.0005,183.8597,266.5364,93.5396,-2.6757e-05,-4.12e-06,0.0,0 STARLINK-5859,1 55915U 23037B   23213.07782410 -.00000412  00000-0 -26757-4 0  9990,2 55915  70.0005 183.8597 0003485 266.5364  93.5396 14.98329410 21281,6950.195,96.107,574.482,569.638,0.0
55915.0,STARLINK-5859,PAYLOAD,2023-08-02 08:18:36,14.98334787,0.0003442,70.0004,180.6617,266.7693,93.3072,5.1263e-05,5.19e-06,0.0,0 STARLINK-5859,1 55915U 23037B   23214.34625721  .00000519  00000-0  51263-4 0  9998,2 55915  70.0004 180.6617 0003442 266.7693  93.3072 14.98334787 21471,6950.178,96.107,574.435,569.651,0.0
55915.0,STARLINK-5859,PAYLOAD,2023-08-02 14:43:09,14.98329727,0.0003401,70.0006,179.9883,267.5269,92.55,-8.9917e-06,-2e-06,0.0,0 STARLINK-5859,1 55915U 23037B   23214.61330152 -.00000200  00000-0 -89917-5 0  9996,2 55915  70.0006 179.9883 0003401 267.5269  92.5500 14.98329727 21512,6950.194,96.107,574.422,569.695,0.0
55915.0,STARLINK-5859,PAYLOAD,2023-08-03 14:45:10,14.98323687,0.0003301,70.0008,177.4632,269.457,90.6211,6.2213e-05,6.49e-06,0.0,0 STARLINK-5859,1 55915U 23037B   23215.61470390  .00000649  00000-0  62213-4 0  9990,2 55915  70.0008 177.4632 0003301 269.4570  90.6211 14.98323687 21667,6950.212,96.107,574.372,569.783,0.0
55915.0,STARLINK-5859,PAYLOAD,2023-08-05 02:00:07,14.9833149,0.0003341,70.0006,173.7614,267.0065,93.0712,3.5003e-05,3.25e-06,0.0,0 STARLINK-5859,1 55915U 23037B   23217.08342006  .00000325  00000-0  35003-4 0  9993,2 55915  70.0006 173.7614 0003341 267.0065  93.0712 14.98331490 21889,6950.188,96.107,574.375,569.731,0.0
55915.0,STARLINK-5859,PAYLOAD,2023-08-05 06:48:31,14.98336414,0.0003308,70.0007,173.2565,266.3101,93.768,6.8593e-05,7.26e-06,0.0,0 STARLINK-5859,1 55915U 23037B   23217.28369552  .00000726  00000-0  68593-4 0  9995,2 55915  70.0007 173.2565 0003308 266.3101  93.7680 14.98336414 21912,6950.173,96.107,574.337,569.739,0.0
55915.0,STARLINK-5859,PAYLOAD,2023-08-06 02:02:08,14.9832522,0.00033,70.0008,171.2372,265.237,94.8412,1.7413e-05,1.15e-06,0.0,0 STARLINK-5859,1 55915U 23037B   23218.08482353  .00000115  00000-0  17413-4 0  9996,2 55915  70.0008 171.2372 0003300 265.2370  94.8412 14.98325220 22037,6950.208,96.107,574.366,569.779,0.0
55915.0,STARLINK-5859,PAYLOAD,2023-08-07 03:40:18,14.98316376,0.0003151,70.0011,168.5426,269.3382,90.7415,0.00013053,1.464e-05,0.0,0 STARLINK-5859,1 55915U 23037B   23219.15298792  .00001464  00000-0  13053-3 0  9990,2 55915  70.0011 168.5426 0003151 269.3382  90.7415 14.98316376 22199,6950.235,96.108,574.29,569.91,0.0
55915.0,STARLINK-5859,PAYLOAD,2023-08-07 19:41:37,14.98333446,0.00034,70.0005,166.8593,271.2152,88.8618,7.5664e-05,8.1e-06,0.0,0 STARLINK-5859,1 55915U 23037B   23219.82057793  .00000810  00000-0  75664-4 0  9999,2 55915  70.0005 166.8593 0003400 271.2152  88.8618 14.98333446 22293,6950.182,96.107,574.41,569.684,0.0
55915.0,STARLINK-5859,PAYLOAD,2023-08-08 06:54:33,14.98342293,0.0003376,70.0003,165.6812,268.5204,91.5568,0.000186,2.128e-05,0.0,0 STARLINK-5859,1 55915U 23037B   23220.28788697  .00002128  00000-0  18600-3 0  9995,2 55915  70.0003 165.6812 0003376 268.5204  91.5568 14.98342293 22364,6950.155,96.106,574.366,569.674,0.0
55915.0,STARLINK-5859,PAYLOAD,2023-08-08 13:19:06,14.98334683,0.000315,70.0011,165.0069,276.585,83.495,6.4756e-05,6.8e-06,0.0,0 STARLINK-5859,1 55915U 23037B   23220.55493509  .00000680  00000-0  64756-4 0  9995,2 55915  70.0011 165.0069 0003150 276.5850  83.4950 14.98334683 22401,6950.178,96.107,574.233,569.854,0.0
